GLOBALSTAR M023 [+]     
1 25621U 99004A   24109.77516308 -.00000038  00000+0  36661-3 0  9997
2 25621  52.0103 265.7356 0009543 268.2767 201.0907 12.62450818162120
GLOBALSTAR M040 [-]     
1 25622U 99004B   24109.74324837 -.00000038  00000+0  36940-3 0  9999
2 25622  51.9910 269.3632 0001153 143.0825 321.6574 12.61971539161660
GLOBALSTAR M038 [-]     
1 25624U 99004D   24109.47704485 -.00000069  00000+0  21178-3 0  9993
2 25624  51.9965 214.6562 0001625 230.0819 209.8427 12.32497072150004
GLOBALSTAR M022 [-]     
1 25649U 99012A   24110.17238628 -.00000065  00000+0  26093-3 0  9996
2 25649  52.0077   3.5473 0003136  53.2706 114.1617 12.02480297125449
GLOBALSTAR M041 [-]     
1 25650U 99012B   24109.64652795 -.00000071  00000+0  17852-3 0  9993
2 25650  52.0012 233.4837 0002582 183.0689 177.0132 11.96660392127455
GLOBALSTAR M046 [-]     
1 25651U 99012C   24109.79812507 -.00000078  00000+0  12180-3 0  9995
2 25651  52.0071 330.1923 0002925 115.3949   9.8770 12.09389322132317
GLOBALSTAR M037 [+]     
1 25652U 99012D   24110.21856477 -.00000071  00000+0  18328-3 0  9992
2 25652  52.0028  35.1632 0001926 346.1279 160.7453 12.62401487157777
